{"type": "FeatureCollection", "features": [ {"type": "Feature", "properties": {"norad_id": 44476, "name": "INTELSAT 39 (IS-39)", "group": "intelsat", "lat": -0.009344784384083062, "lon": -133.0810275180563, "alt_km": 35785.90118223496, "timestamp": "2025-12-26T04:40:05.456248+00:00", "meta": {"OBJECT_NAME": "INTELSAT 39 (IS-39)", "OBJECT_ID": "2019-049B", "EPOCH": "2025-12-25T22:58:31.327392", "MEAN_MOTION": 1.00267496, "ECCENTRICITY": 0.00012671, "INCLINATION": 0.0015, "RA_OF_ASC_NODE": 28.3324, "ARG_OF_PERICENTER": 123.6864, "MEAN_ANOMALY": 349.2708, "EPHEMERIS_TYPE": 0, "CLASSIFICATION_TYPE": "U", "NORAD_CAT_ID": 44476, "ELEMENT_SET_NO": 999, "REV_AT_EPOCH": 2339, "BSTAR": 0, "MEAN_MOTION_DOT": 5.6e-07, "MEAN_MOTION_DDOT": 0}, "tle": {"line1": "1 44476U 19049B   25359.95730703  .00000056  00000+0  00000+0 0  9995", "line2": "2 44476   0.0015  28.3324 0001267 123.6864 349.2708  1.00267496 23396"}}, "geometry": {"type": "Point", "coordinates": [-133.0810275180563, -0.009344784384083062]}}, {"type": "Feature", "properties": {"norad_id": 46114, "name": "GALAXY 30 (G-30)", "group": "intelsat", "lat": 0.026161221894826524, "lon": 39.97476262000653, "alt_km": 35791.70931635241, "timestamp": "2025-12-26T04:40:05.456260+00:00", "meta": {"OBJECT_NAME": "GALAXY 30 (G-30)", "OBJECT_ID": "2020-056C", "EPOCH": "2025-12-25T10:50:38.606208", "MEAN_MOTION": 1.00271181, "ECCENTRICITY": 0.0002181, "INCLINATION": 0.0184, "RA_OF_ASC_NODE": 339.6266, "ARG_OF_PERICENTER": 293.6625, "MEAN_ANOMALY": 218.5799, "EPHEMERIS_TYPE": 0, "CLASSIFICATION_TYPE": "U", "NORAD_CAT_ID": 46114, "ELEMENT_SET_NO": 999, "REV_AT_EPOCH": 1955, "BSTAR": 0, "MEAN_MOTION_DOT": 5.8e-07, "MEAN_MOTION_DDOT": 0}, "tle": {"line1": "1 46114U 20056C   25359.45183572  .00000058  00000+0  00000+0 0  9999", "line2": "2 46114   0.0184 339.6266 0002181 293.6625 218.5799  1.00271181 19553"}}, "geometry": {"type": "Point", "coordinates": [39.97476262000653, 0.026161221894826524]}}, {"type": "Feature", "properties": {"norad_id": 54026, "name": "GALAXY 33 (G-33)", "group": "intelsat", "lat": 0.015529077411816949, "lon": 31.986207187827297, "alt_km": 35789.92908559707, "timestamp": "2025-12-26T04:40:05.456271+00:00", "meta": {"OBJECT_NAME": "GALAXY 33 (G-33)", "OBJECT_ID": "2022-128A", "EPOCH": "2025-12-24T04:31:51.326400", "MEAN_MOTION": 1.00272122, "ECCENTRICITY": 0.0001643, "INCLINATION": 0.0126, "RA_OF_ASC_NODE": 315.9231, "ARG_OF_PERICENTER": 309.5058, "MEAN_ANOMALY": 122.5078, "EPHEMERIS_TYPE": 0, "CLASSIFICATION_TYPE": "U", "NORAD_CAT_ID": 54026, "ELEMENT_SET_NO": 999, "REV_AT_EPOCH": 1198, "BSTAR": 0, "MEAN_MOTION_DOT": 1e-06, "MEAN_MOTION_DDOT": 0}, "tle": {"line1": "1 54026U 22128A   25358.18878850  .00000100  00000+0  00000+0 0  9999", "line2": "2 54026   0.0126 315.9231 0001643 309.5058 122.5078  1.00272122 11987"}}, "geometry": {"type": "Point", "coordinates": [31.986207187827297, 0.015529077411816949]}}, {"type": "Feature", "properties": {"norad_id": 54027, "name": "GALAXY 34 (G-34)", "group": "intelsat", "lat": 0.020492095602347167, "lon": 36.013727209055624, "alt_km": 35791.057424323655, "timestamp": "2025-12-26T04:40:05.456283+00:00", "meta": {"OBJECT_NAME": "GALAXY 34 (G-34)", "OBJECT_ID": "2022-128B", "EPOCH": "2025-12-25T10:50:38.606208", "MEAN_MOTION": 1.00270054, "ECCENTRICITY": 0.0001738, "INCLINATION": 0.0222, "RA_OF_ASC_NODE": 4.8394, "ARG_OF_PERICENTER": 262.8726, "MEAN_ANOMALY": 220.2033, "EPHEMERIS_TYPE": 0, "CLASSIFICATION_TYPE": "U", "NORAD_CAT_ID": 54027, "ELEMENT_SET_NO": 999, "REV_AT_EPOCH": 1217, "BSTAR": 0, "MEAN_MOTION_DOT": 0, "MEAN_MOTION_DDOT": 0}, "tle": {"line1": "1 54027U 22128B   25359.45183572  .00000000  00000+0  00000+0 0  9990", "line2": "2 54027   0.0222   4.8394 0001738 262.8726 220.2033  1.00270054 12178"}}, "geometry": {"type": "Point", "coordinates": [36.013727209055624, 0.020492095602347167]}}, {"type": "Feature", "properties": {"norad_id": 54243, "name": "GALAXY 31 (G-31)", "group": "intelsat", "lat": 0.01874261048039651, "lon": 43.971073636492164, "alt_km": 35789.57194074778, "timestamp": "2025-12-26T04:40:05.456295+00:00", "meta": {"OBJECT_NAME": "GALAXY 31 (G-31)", "OBJECT_ID": "2022-153A", "EPOCH": "2025-12-25T06:10:38.819136", "MEAN_MOTION": 1.00271189, "ECCENTRICITY": 0.0001633, "INCLINATION": 0.0095, "RA_OF_ASC_NODE": 327.1033, "ARG_OF_PERICENTER": 317.678, "MEAN_ANOMALY": 140.8972, "EPHEMERIS_TYPE": 0, "CLASSIFICATION_TYPE": "U", "NORAD_CAT_ID": 54243, "ELEMENT_SET_NO": 999, "REV_AT_EPOCH": 538, "BSTAR": 0, "MEAN_MOTION_DOT": 3.4e-07, "MEAN_MOTION_DDOT": 0}, "tle": {"line1": "1 54243U 22153A   25359.25739374  .00000034  00000+0  00000+0 0  9990", "line2": "2 54243   0.0095 327.1033 0001633 317.6780 140.8972  1.00271189  5384"}}, "geometry": {"type": "Point", "coordinates": [43.971073636492164, 0.01874261048039651]}}, {"type": "Feature", "properties": {"norad_id": 54244, "name": "GALAXY 32 (G-32)", "group": "intelsat", "lat": 0.024867641381915707, "lon": 73.9843480108801, "alt_km": 35789.887234268965, "timestamp": "2025-12-26T04:40:05.456307+00:00", "meta": {"OBJECT_NAME": "GALAXY 32 (G-32)", "OBJECT_ID": "2022-153B", "EPOCH": "2025-12-24T22:56:22.028928", "MEAN_MOTION": 1.00272509, "ECCENTRICITY": 0.0001992, "INCLINATION": 0.0091, "RA_OF_ASC_NODE": 20.8495, "ARG_OF_PERICENTER": 295.2988, "MEAN_ANOMALY": 30.6679, "EPHEMERIS_TYPE": 0, "CLASSIFICATION_TYPE": "U", "NORAD_CAT_ID": 54244, "ELEMENT_SET_NO": 999, "REV_AT_EPOCH": 1139, "BSTAR": 0, "MEAN_MOTION_DOT": -1.53e-06, "MEAN_MOTION_DDOT": 0}, "tle": {"line1": "1 54244U 22153B   25358.95581052 -.00000153  00000+0  00000+0 0  9998", "line2": "2 54244   0.0091  20.8495 0001992 295.2988  30.6679  1.00272509 11394"}}, "geometry": {"type": "Point", "coordinates": [73.9843480108801, 0.024867641381915707]}}, {"type": "Feature", "properties": {"norad_id": 54741, "name": "GALAXY 35 (G-35)", "group": "intelsat", "lat": 0.013703439353364396, "lon": 71.87591028867185, "alt_km": 35795.43791122608, "timestamp": "2025-12-26T04:40:05.456332+00:00", "meta": {"OBJECT_NAME": "GALAXY 35 (G-35)", "OBJECT_ID": "2022-170A", "EPOCH": "2025-12-25T21:10:55.542720", "MEAN_MOTION": 1.00270925, "ECCENTRICITY": 0.00023613, "INCLINATION": 0.0228, "RA_OF_ASC_NODE": 256.929, "ARG_OF_PERICENTER": 19.3758, "MEAN_ANOMALY": 42.9691, "EPHEMERIS_TYPE": 0, "CLASSIFICATION_TYPE": "U", "NORAD_CAT_ID": 54741, "ELEMENT_SET_NO": 999, "REV_AT_EPOCH": 1115, "BSTAR": 0, "MEAN_MOTION_DOT": -1.41e-06, "MEAN_MOTION_DDOT": 0}, "tle": {"line1": "1 54741U 22170A   25359.88258730 -.00000141  00000+0  00000+0 0  9993", "line2": "2 54741   0.0228 256.9290 0002361  19.3758  42.9691  1.00270925 11158"}}, "geometry": {"type": "Point", "coordinates": [71.87591028867185, 0.013703439353364396]}}, {"type": "Feature", "properties": {"norad_id": 54742, "name": "GALAXY 36 (G-36)", "group": "intelsat", "lat": 0.009934947570877033, "lon": 75.97234775877867, "alt_km": 35786.0907566906, "timestamp": "2025-12-26T04:40:05.456347+00:00", "meta": {"OBJECT_NAME": "GALAXY 36 (G-36)", "OBJECT_ID": "2022-170B", "EPOCH": "2025-12-25T00:45:14.126400", "MEAN_MOTION": 1.00272273, "ECCENTRICITY": 3.465e-05, "INCLINATION": 0.0122, "RA_OF_ASC_NODE": 82.1613, "ARG_OF_PERICENTER": 260.7471, "MEAN_ANOMALY": 33.2048, "EPHEMERIS_TYPE": 0, "CLASSIFICATION_TYPE": "U", "NORAD_CAT_ID": 54742, "ELEMENT_SET_NO": 999, "REV_AT_EPOCH": 1102, "BSTAR": 0, "MEAN_MOTION_DOT": -1.64e-06, "MEAN_MOTION_DDOT": 0}, "tle": {"line1": "1 54742U 22170B   25359.03141350 -.00000164  00000+0  00000+0 0  9995", "line2": "2 54742   0.0122  82.1613 0000346 260.7471  33.2048  1.00272273 11028"}}, "geometry": {"type": "Point", "coordinates": [75.97234775877867, 0.009934947570877033]}}, {"type": "Feature", "properties": {"norad_id": 57493, "name": "GALAXY 37 (G-37)", "group": "intelsat", "lat": 0.00977666639153285, "lon": 37.972483344573206, "alt_km": 35790.5368177029, "timestamp": "2025-12-26T04:40:05.456359+00:00", "meta": {"OBJECT_NAME": "GALAXY 37 (G-37)", "OBJECT_ID": "2023-112A", "EPOCH": "2025-12-25T14:10:28.303968", "MEAN_MOTION": 1.00271761, "ECCENTRICITY": 0.0002126, "INCLINATION": 0.0125, "RA_OF_ASC_NODE": 25.9984, "ARG_OF_PERICENTER": 252.027, "MEAN_ANOMALY": 261.9326, "EPHEMERIS_TYPE": 0, "CLASSIFICATION_TYPE": "U", "NORAD_CAT_ID": 57493, "ELEMENT_SET_NO": 999, "REV_AT_EPOCH": 880, "BSTAR": 0, "MEAN_MOTION_DOT": 6.9e-07, "MEAN_MOTION_DDOT": 0}, "tle": {"line1": "1 57493U 23112A   25359.59060537  .00000069  00000+0  00000+0 0  9999", "line2": "2 57493   0.0125  25.9984 0002126 252.0270 261.9326  1.00271761  8804"}}, "geometry": {"type": "Point", "coordinates": [37.972483344573206, 0.00977666639153285]}}]}